[{"OBJECT_NAME":"RADFXSAT-2 (AO-109)","OBJECT_ID":"2021-002C","EPOCH":"2022-08-18T06:25:41.963520","MEAN_MOTION":15.26118842,"ECCENTRICITY":0.0027613,"INCLINATION":60.6846,"RA_OF_ASC_NODE":129.4075,"ARG_OF_PERICENTER":22.4806,"MEAN_ANOMALY":337.7485,"EPHEMERIS_TYPE":0,"CLASSIFICATION_TYPE":"U","NORAD_CAT_ID":47311,"ELEMENT_SET_NO":999,"REV_AT_EPOCH":8789,"BSTAR":0.0004302,"MEAN_MOTION_DOT":0.00011039,"MEAN_MOTION_DDOT":0},{"OBJECT_NAME":"UVSQ-SAT","OBJECT_ID":"2021-006AB","EPOCH":"2022-08-18T03:03:07.534656","MEAN_MOTION":15.16285561,"ECCENTRICITY":0.0013134,"INCLINATION":97.4324,"RA_OF_ASC_NODE":287.8799,"ARG_OF_PERICENTER":65.5125,"MEAN_ANOMALY":294.7476,"EPHEMERIS_TYPE":0,"CLASSIFICATION_TYPE":"U","NORAD_CAT_ID":47438,"ELEMENT_SET_NO":999,"REV_AT_EPOCH":8662,"BSTAR":0.00033105,"MEAN_MOTION_DOT":6.358e-5,"MEAN_MOTION_DDOT":0},{"OBJECT_NAME":"DIY-1 (ARDUIQUBE)","OBJECT_ID":"2021-022AH","EPOCH":"2022-08-18T06:18:53.728704","MEAN_MOTION":15.15072849,"ECCENTRICITY":0.0014091,"INCLINATION":97.5247,"RA_OF_ASC_NODE":130.9551,"ARG_OF_PERICENTER":281.2447,"MEAN_ANOMALY":78.7201,"EPHEMERIS_TYPE":0,"CLASSIFICATION_TYPE":"U","NORAD_CAT_ID":47963,"ELEMENT_SET_NO":999,"REV_AT_EPOCH":7630,"BSTAR":0.0010898,"MEAN_MOTION_DOT":0.00020413,"MEAN_MOTION_DDOT":0},{"OBJECT_NAME":"XW-3 (CAS-9)","OBJECT_ID":"2021-131B","EPOCH":"2022-08-19T04:33:58.084704","MEAN_MOTION":14.38516084,"ECCENTRICITY":0.0003677,"INCLINATION":98.5782,"RA_OF_ASC_NODE":308.4086,"ARG_OF_PERICENTER":335.568,"MEAN_ANOMALY":24.5332,"EPHEMERIS_TYPE":0,"CLASSIFICATION_TYPE":"U","NORAD_CAT_ID":50466,"ELEMENT_SET_NO":999,"REV_AT_EPOCH":3393,"BSTAR":4.9679e-5,"MEAN_MOTION_DOT":1.07e-6,"MEAN_MOTION_DDOT":0},{"OBJECT_NAME":"TEVEL-3","OBJECT_ID":"2022-002E","EPOCH":"2022-08-19T04:22:33.895200","MEAN_MOTION":15.15089498,"ECCENTRICITY":0.0009105,"INCLINATION":97.4768,"RA_OF_ASC_NODE":297.1321,"ARG_OF_PERICENTER":197.7937,"MEAN_ANOMALY":221.0505,"EPHEMERIS_TYPE":0,"CLASSIFICATION_TYPE":"U","NORAD_CAT_ID":50988,"ELEMENT_SET_NO":999,"REV_AT_EPOCH":3291,"BSTAR":0.00029598,"MEAN_MOTION_DOT":5.48e-5,"MEAN_MOTION_DDOT":0},{"OBJECT_NAME":"TEVEL-8","OBJECT_ID":"2022-002F","EPOCH":"2022-08-19T01:29:31.215840","MEAN_MOTION":15.15034128,"ECCENTRICITY":0.0009245,"INCLINATION":97.4787,"RA_OF_ASC_NODE":297.039,"ARG_OF_PERICENTER":196.9069,"MEAN_ANOMALY":247.31,"EPHEMERIS_TYPE":0,"CLASSIFICATION_TYPE":"U","NORAD_CAT_ID":50989,"ELEMENT_SET_NO":999,"REV_AT_EPOCH":3289,"BSTAR":0.00028932,"MEAN_MOTION_DOT":5.347e-5,"MEAN_MOTION_DDOT":0},{"OBJECT_NAME":"TEVEL-5","OBJECT_ID":"2022-002Q","EPOCH":"2022-08-19T04:23:55.609728","MEAN_MOTION":15.15579959,"ECCENTRICITY":0.0010686,"INCLINATION":97.4764,"RA_OF_ASC_NODE":297.2616,"ARG_OF_PERICENTER":194.0832,"MEAN_ANOMALY":225.3161,"EPHEMERIS_TYPE":0,"CLASSIFICATION_TYPE":"U","NORAD_CAT_ID":50998,"ELEMENT_SET_NO":999,"REV_AT_EPOCH":3292,"BSTAR":0.00029966,"MEAN_MOTION_DOT":5.629e-5,"MEAN_MOTION_DDOT":0},{"OBJECT_NAME":"TEVEL-6","OBJECT_ID":"2022-002R","EPOCH":"2022-08-19T04:22:37.149888","MEAN_MOTION":15.15584302,"ECCENTRICITY":0.0010756,"INCLINATION":97.4762,"RA_OF_ASC_NODE":297.2591,"ARG_OF_PERICENTER":193.8933,"MEAN_ANOMALY":223.4074,"EPHEMERIS_TYPE":0,"CLASSIFICATION_TYPE":"U","NORAD_CAT_ID":50999,"ELEMENT_SET_NO":999,"REV_AT_EPOCH":3292,"BSTAR":0.00029936,"MEAN_MOTION_DOT":5.624e-5,"MEAN_MOTION_DDOT":0},{"OBJECT_NAME":"TEVEL-1","OBJECT_ID":"2022-002AF","EPOCH":"2022-08-19T04:27:06.919200","MEAN_MOTION":15.15062881,"ECCENTRICITY":0.0008989,"INCLINATION":97.4772,"RA_OF_ASC_NODE":297.1138,"ARG_OF_PERICENTER":197.1568,"MEAN_ANOMALY":221.3127,"EPHEMERIS_TYPE":0,"CLASSIFICATION_TYPE":"U","NORAD_CAT_ID":51013,"ELEMENT_SET_NO":999,"REV_AT_EPOCH":3291,"BSTAR":0.00029077,"MEAN_MOTION_DOT":5.378e-5,"MEAN_MOTION_DDOT":0},{"OBJECT_NAME":"TEVEL-7","OBJECT_ID":"2022-002CG","EPOCH":"2022-08-19T04:36:44.029728","MEAN_MOTION":15.15026898,"ECCENTRICITY":0.0009084,"INCLINATION":97.4784,"RA_OF_ASC_NODE":297.1533,"ARG_OF_PERICENTER":195.9522,"MEAN_ANOMALY":227.7123,"EPHEMERIS_TYPE":0,"CLASSIFICATION_TYPE":"U","NORAD_CAT_ID":51062,"ELEMENT_SET_NO":999,"REV_AT_EPOCH":3291,"BSTAR":0.00028813,"MEAN_MOTION_DOT":5.323e-5,"MEAN_MOTION_DDOT":0},{"OBJECT_NAME":"TEVEL-4","OBJECT_ID":"2022-002CH","EPOCH":"2022-08-19T04:37:41.248128","MEAN_MOTION":15.15017301,"ECCENTRICITY":0.0009037,"INCLINATION":97.4783,"RA_OF_ASC_NODE":297.1501,"ARG_OF_PERICENTER":196.1303,"MEAN_ANOMALY":226.7021,"EPHEMERIS_TYPE":0,"CLASSIFICATION_TYPE":"U","NORAD_CAT_ID":51063,"ELEMENT_SET_NO":999,"REV_AT_EPOCH":3291,"BSTAR":0.00028576,"MEAN_MOTION_DOT":5.277e-5,"MEAN_MOTION_DDOT":0},{"OBJECT_NAME":"TEVEL-2","OBJECT_ID":"2022-002CP","EPOCH":"2022-08-19T04:25:14.167200","MEAN_MOTION":15.15081455,"ECCENTRICITY":0.0008998,"INCLINATION":97.4765,"RA_OF_ASC_NODE":297.1195,"ARG_OF_PERICENTER":197.8735,"MEAN_ANOMALY":223.9208,"EPHEMERIS_TYPE":0,"CLASSIFICATION_TYPE":"U","NORAD_CAT_ID":51069,"ELEMENT_SET_NO":999,"REV_AT_EPOCH":3291,"BSTAR":0.00029358,"MEAN_MOTION_DOT":5.433e-5,"MEAN_MOTION_DDOT":0},{"OBJECT_NAME":"RS3S","OBJECT_ID":"1998-067TT","EPOCH":"2022-08-18T23:09:41.984928","MEAN_MOTION":15.51958892,"ECCENTRICITY":0.0002247,"INCLINATION":51.6424,"RA_OF_ASC_NODE":25.4104,"ARG_OF_PERICENTER":126.697,"MEAN_ANOMALY":233.4226,"EPHEMERIS_TYPE":0,"CLASSIFICATION_TYPE":"U","NORAD_CAT_ID":53308,"ELEMENT_SET_NO":999,"REV_AT_EPOCH":446,"BSTAR":0.00084603,"MEAN_MOTION_DOT":0.00051647,"MEAN_MOTION_DDOT":0},{"OBJECT_NAME":"RS1S","OBJECT_ID":"1998-067TU","EPOCH":"2022-08-18T23:08:46.613760","MEAN_MOTION":15.52011209,"ECCENTRICITY":0.0002794,"INCLINATION":51.6422,"RA_OF_ASC_NODE":25.4052,"ARG_OF_PERICENTER":145.3767,"MEAN_ANOMALY":214.7405,"EPHEMERIS_TYPE":0,"CLASSIFICATION_TYPE":"U","NORAD_CAT_ID":53309,"ELEMENT_SET_NO":999,"REV_AT_EPOCH":441,"BSTAR":0.00085369,"MEAN_MOTION_DOT":0.00052223,"MEAN_MOTION_DDOT":0},{"OBJECT_NAME":"RS5S","OBJECT_ID":"1998-067TV","EPOCH":"2022-08-18T21:36:15.869088","MEAN_MOTION":15.51951927,"ECCENTRICITY":0.0002555,"INCLINATION":51.6426,"RA_OF_ASC_NODE":25.7271,"ARG_OF_PERICENTER":146.577,"MEAN_ANOMALY":213.5381,"EPHEMERIS_TYPE":0,"CLASSIFICATION_TYPE":"U","NORAD_CAT_ID":53310,"ELEMENT_SET_NO":999,"REV_AT_EPOCH":443,"BSTAR":0.00083342,"MEAN_MOTION_DOT":0.00050853,"MEAN_MOTION_DDOT":0},{"OBJECT_NAME":"RS6S","OBJECT_ID":"1998-067TW","EPOCH":"2022-08-18T23:06:46.746720","MEAN_MOTION":15.52143495,"ECCENTRICITY":0.0001976,"INCLINATION":51.642,"RA_OF_ASC_NODE":25.3958,"ARG_OF_PERICENTER":117.4553,"MEAN_ANOMALY":242.6638,"EPHEMERIS_TYPE":0,"CLASSIFICATION_TYPE":"U","NORAD_CAT_ID":53311,"ELEMENT_SET_NO":999,"REV_AT_EPOCH":446,"BSTAR":0.00089812,"MEAN_MOTION_DOT":0.00055247,"MEAN_MOTION_DDOT":0},{"OBJECT_NAME":"RS9S","OBJECT_ID":"1998-067TX","EPOCH":"2022-08-19T00:40:07.026240","MEAN_MOTION":15.52073844,"ECCENTRICITY":0.0002962,"INCLINATION":51.6425,"RA_OF_ASC_NODE":25.0789,"ARG_OF_PERICENTER":148.7839,"MEAN_ANOMALY":211.3327,"EPHEMERIS_TYPE":0,"CLASSIFICATION_TYPE":"U","NORAD_CAT_ID":53312,"ELEMENT_SET_NO":999,"REV_AT_EPOCH":441,"BSTAR":0.00085019,"MEAN_MOTION_DOT":0.00052125,"MEAN_MOTION_DDOT":0}]