RADFXSAT-2 (AO-109)     
1 47311U 21002C   22230.26784680  .00011039  00000+0  43020-3 0  9996
2 47311  60.6846 129.4075 0027613  22.4806 337.7485 15.26118842 87894
UVSQ-SAT                
1 47438U 21006AB  22230.12717054  .00006358  00000+0  33105-3 0  9997
2 47438  97.4324 287.8799 0013134  65.5125 294.7476 15.16285561 86624
DIY-1 (ARDUIQUBE)       
1 47963U 21022AH  22230.26312186  .00020413  00000+0  10898-2 0  9991
2 47963  97.5247 130.9551 0014091 281.2447  78.7201 15.15072849 76305
XW-3 (CAS-9)            
1 50466U 21131B   22231.19025561  .00000107  00000+0  49679-4 0  9994
2 50466  98.5782 308.4086 0003677 335.5680  24.5332 14.38516084 33931
TEVEL-3                 
1 50988U 22002E   22231.18233675  .00005480  00000+0  29598-3 0  9993
2 50988  97.4768 297.1321 0009105 197.7937 221.0505 15.15089498 32916
TEVEL-8                 
1 50989U 22002F   22231.06216685  .00005347  00000+0  28932-3 0  9996
2 50989  97.4787 297.0390 0009245 196.9069 247.3100 15.15034128 32894
TEVEL-5                 
1 50998U 22002Q   22231.18328252  .00005629  00000+0  29966-3 0  9994
2 50998  97.4764 297.2616 0010686 194.0832 225.3161 15.15579959 32923
TEVEL-6                 
1 50999U 22002R   22231.18237442  .00005624  00000+0  29936-3 0  9997
2 50999  97.4762 297.2591 0010756 193.8933 223.4074 15.15584302 32921
TEVEL-1                 
1 51013U 22002AF  22231.18549675  .00005378  00000+0  29077-3 0  9991
2 51013  97.4772 297.1138 0008989 197.1568 221.3127 15.15062881 32910
TEVEL-7                 
1 51062U 22002CG  22231.19217627  .00005323  00000+0  28813-3 0  9992
2 51062  97.4784 297.1533 0009084 195.9522 227.7123 15.15026898 32913
TEVEL-4                 
1 51063U 22002CH  22231.19283852  .00005277  00000+0  28576-3 0  9990
2 51063  97.4783 297.1501 0009037 196.1303 226.7021 15.15017301 32911
TEVEL-2                 
1 51069U 22002CP  22231.18419175  .00005433  00000+0  29358-3 0  9997
2 51069  97.4765 297.1195 0008998 197.8735 223.9208 15.15081455 32915
RS3S                    
1 53308U 98067TT  22230.96506927  .00051647  00000+0  84603-3 0  9998
2 53308  51.6424  25.4104 0002247 126.6970 233.4226 15.51958892  4464
RS1S                    
1 53309U 98067TU  22230.96442840  .00052223  00000+0  85369-3 0  9993
2 53309  51.6422  25.4052 0002794 145.3767 214.7405 15.52011209  4413
RS5S                    
1 53310U 98067TV  22230.90018367  .00050853  00000+0  83342-3 0  9998
2 53310  51.6426  25.7271 0002555 146.5770 213.5381 15.51951927  4438
RS6S                    
1 53311U 98067TW  22230.96304105  .00055247  00000+0  89812-3 0  9993
2 53311  51.6420  25.3958 0001976 117.4553 242.6638 15.52143495  4468
RS9S                    
1 53312U 98067TX  22231.02785910  .00052125  00000+0  85019-3 0  9996
2 53312  51.6425  25.0789 0002962 148.7839 211.3327 15.52073844  4416
